ONEWEB-0228             
1 48780U 21045P   24265.61273996  .00000018  00000+0  13705-4 0  9999
2 48780  87.9099  25.2615 0001787 104.6784 255.4545 13.15551129161028
